COMMENT,ORIGINATOR,NORAD_CAT_ID,OBJECT_NAME,OBJECT_TYPE,CLASSIFICATION_TYPE,INTLDES,EPOCH,EPOCH_MICROSECONDS,MEAN_MOTION,ECCENTRICITY,INCLINATION,RA_OF_ASC_NODE,ARG_OF_PERICENTER,MEAN_ANOMALY,EPHEMERIS_TYPE,ELEMENT_SET_NO,REV_AT_EPOCH,BSTAR,MEAN_MOTION_DOT,MEAN_MOTION_DDOT,FILE,TLE_LINE0,TLE_LINE1,TLE_LINE2,OBJECT_ID,OBJECT_NUMBER,SEMIMAJOR_AXIS,PERIOD,APOGEE,PERIGEE,DECAYED,date
GENERATED VIA SPACETRACK.ORG API,18 SPCS,46300,SPACEBEE-21,PAYLOAD,U,20061AE,2023/3/26 22:26,99008,15.45837863,0.0003567,97.4092,161.8789,226.0931,134.0024,0,999,14163,0.0030522,0.00150675,0,3871964,0 SPACEBEE-21,1 46300U 20061AE  23085.93532522  .00150675  00000-0  30522-2 0  9999,2 46300  97.4092 161.8789 0003567 226.0931 134.0024 15.45837863141639,2020-061AE,46300,6807.054,93.153,431.347,426.491,1,
GENERATED VIA SPACETRACK.ORG API,18 SPCS,46300,SPACEBEE-21,PAYLOAD,U,20061AE,2023/3/27 10:52,585088,15.45992438,0.0003567,97.4091,162.4085,226.0942,134.0013,0,999,14171,0.0030434,0.00151042,0,3872569,0 SPACEBEE-21,1 46300U 20061AE  23086.45315492  .00151042  00000-0  30434-2 0  9993,2 46300  97.4091 162.4085 0003567 226.0942 134.0013 15.45992438141713,2020-061AE,46300,6806.601,93.144,430.893,426.038,1,
GENERATED VIA SPACETRACK.ORG API,18 SPCS,46300,SPACEBEE-21,PAYLOAD,U,20061AE,2023/3/27 20:11,194784,15.46099534,0.0003634,97.4091,162.8052,226.7696,133.325,0,999,14177,0.0028491,0.00141743,0,3872858,0 SPACEBEE-21,1 46300U 20061AE  23086.84149531  .00141743  00000-0  28491-2 0  9992,2 46300  97.4091 162.8052 0003634 226.7696 133.3250 15.46099534141776,2020-061AE,46300,6806.286,93.138,430.625,425.678,1,
GENERATED VIA SPACETRACK.ORG API,18 SPCS,46300,SPACEBEE-21,PAYLOAD,U,20061AE,2023/3/27 20:11,194784,15.46099534,0.0003634,97.4091,162.8052,226.7696,133.325,0,999,14177,0.0028491,0.00141743,0,3872915,0 SPACEBEE-21,1 46300U 20061AE  23086.84149531  .00141743  00000-0  28491-2 0  9992,2 46300  97.4091 162.8052 0003634 226.7696 133.3250 15.46099534141776,2020-061AE,46300,6806.286,93.138,430.625,425.678,1,
GENERATED VIA SPACETRACK.ORG API,18 SPCS,46300,SPACEBEE-21,PAYLOAD,U,20061AE,2023/3/28 3:57,794144,15.46200263,0.0003648,97.4091,163.1358,225.795,134.3,0,999,14182,0.002937,0.00146717,0,3873497,0 SPACEBEE-21,1 46300U 20061AE  23087.16509021  .00146717  00000-0  29370-2 0  9995,2 46300  97.4091 163.1358 0003648 225.7950 134.3000 15.46200263141829,2020-061AE,46300,6805.991,93.132,430.338,425.373,1,
GENERATED VIA SPACETRACK.ORG API,18 SPCS,46300,SPACEBEE-21,PAYLOAD,U,20061AE,2023/3/28 3:57,794144,15.46200263,0.0003648,97.4091,163.1358,225.795,134.3,0,999,14182,0.002937,0.00146717,0,3873565,0 SPACEBEE-21,1 46300U 20061AE  23087.16509021  .00146717  00000-0  29370-2 0  9995,2 46300  97.4091 163.1358 0003648 225.7950 134.3000 15.46200263141829,2020-061AE,46300,6805.991,93.132,430.338,425.373,1,
GENERATED VIA SPACETRACK.ORG API,18 SPCS,46300,SPACEBEE-21,PAYLOAD,U,20061AE,2023/3/28 21:02,185216,15.46437119,0.0003663,97.4092,163.8637,226.1837,133.911,0,999,14193,0.0034342,0.00173562,0,3873921,0 SPACEBEE-21,1 46300U 20061AE  23087.87692344  .00173562  00000-0  34342-2 0  9997,2 46300  97.4092 163.8637 0003663 226.1837 133.9110 15.46437119141934,2020-061AE,46300,6805.296,93.117,429.653,424.668,1,
GENERATED VIA SPACETRACK.ORG API,18 SPCS,46300,SPACEBEE-21,PAYLOAD,U,20061AE,2023/3/28 22:35,852736,15.46456542,0.0003694,97.4092,163.9298,225.6373,134.4574,0,999,14194,0.0034021,0.0017202,0,3873869,0 SPACEBEE-21,1 46300U 20061AE  23087.94163024  .00172020  00000-0  34021-2 0  9995,2 46300  97.4092 163.9298 0003694 225.6373 134.4574 15.46456542141943,2020-061AE,46300,6805.239,93.116,429.618,424.59,1,
GENERATED VIA SPACETRACK.ORG API,18 SPCS,46300,SPACEBEE-21,PAYLOAD,U,20061AE,2023/3/29 3:15,296288,15.46528281,0.0003711,97.4092,164.1283,224.9114,135.1836,0,999,14197,0.0033982,0.00172251,0,3874492,0 SPACEBEE-21,1 46300U 20061AE  23088.13574417  .00172251  00000-0  33982-2 0  9990,2 46300  97.4092 164.1283 0003711 224.9114 135.1836 15.46528281141977,2020-061AE,46300,6805.028,93.112,429.419,424.368,1,
GENERATED VIA SPACETRACK.ORG API,18 SPCS,46300,SPACEBEE-21,PAYLOAD,U,20061AE,2023/3/29 15:40,695232,15.46701498,0.0003697,97.4093,164.6586,225.5889,134.5059,0,999,14205,0.0034059,0.00173702,0,3874790,0 SPACEBEE-21,1 46300U 20061AE  23088.65334138  .00173702  00000-0  34059-2 0  9999,2 46300  97.4093 164.6586 0003697 225.5889 134.5059 15.46701498142051,2020-061AE,46300,6804.52,93.101,428.901,423.87,1,
GENERATED VIA SPACETRACK.ORG API,18 SPCS,46300,SPACEBEE-21,PAYLOAD,U,20061AE,2023/3/30 4:06,949920,15.46889866,0.0003747,97.4089,165.1865,225.6717,134.4226,0,999,14213,0.0036404,0.00187196,0,3875073,0 SPACEBEE-21,1 46300U 20061AE  23089.17087905  .00187196  00000-0  36404-2 0  9992,2 46300  97.4089 165.1865 0003747 225.6717 134.4226 15.46889866142139,2020-061AE,46300,6803.968,93.09,428.382,423.283,1,
GENERATED VIA SPACETRACK.ORG API,18 SPCS,46300,SPACEBEE-21,PAYLOAD,U,20061AE,2023/3/30 21:10,604000,15.47156058,0.0003853,97.4093,165.9149,225.6932,134.4002,0,999,14224,0.0040637,0.00211556,0,3875726,0 SPACEBEE-21,1 46300U 20061AE  23089.88239125  .00211556  00000-0  40637-2 0  9994,2 46300  97.4093 165.9149 0003853 225.6932 134.4002 15.47156058142249,2020-061AE,46300,6803.187,93.074,427.674,422.431,1,
GENERATED VIA SPACETRACK.ORG API,18 SPCS,46300,SPACEBEE-21,PAYLOAD,U,20061AE,2023/3/31 4:56,841120,15.47292438,0.0003861,97.4092,166.2459,224.8627,135.2311,0,999,14229,0.0039745,0.00207784,0,3875999,0 SPACEBEE-21,1 46300U 20061AE  23090.20576205  .00207784  00000-0  39745-2 0  9991,2 46300  97.4092 166.2459 0003861 224.8627 135.2311 15.47292438142297,2020-061AE,46300,6802.788,93.066,427.279,422.026,1,
GENERATED VIA SPACETRACK.ORG API,18 SPCS,46300,SPACEBEE-21,PAYLOAD,U,20061AE,2023/3/31 20:27,572704,15.47530355,0.0003904,97.4089,166.908,223.9932,136.1008,0,999,14239,0.0034873,0.00183227,0,3876601,0 SPACEBEE-21,1 46300U 20061AE  23090.85242561  .00183227  00000-0  34873-2 0  9999,2 46300  97.4089 166.9080 0003904 223.9932 136.1008 15.47530355142394,2020-061AE,46300,6802.09,93.051,426.611,421.3,1,
GENERATED VIA SPACETRACK.ORG API,18 SPCS,46300,SPACEBEE-21,PAYLOAD,U,20061AE,2023/4/1 13:31,5760,15.47764656,0.0003944,97.409,167.6366,225.4342,134.6586,0,999,14250,0.0031952,0.00168928,0,3877270,0 SPACEBEE-21,1 46300U 20061AE  23091.56364590  .00168928  00000-0  31952-2 0  9991,2 46300  97.4090 167.6366 0003944 225.4342 134.6586 15.47764656142507,2020-061AE,46300,6801.404,93.037,425.951,420.586,1,
GENERATED VIA SPACETRACK.ORG API,18 SPCS,46300,SPACEBEE-21,PAYLOAD,U,20061AE,2023/4/1 15:04,877216,15.47785662,0.0003948,97.409,167.7028,225.5008,134.592,0,999,14251,0.0031634,0.00167333,0,3877217,0 SPACEBEE-21,1 46300U 20061AE  23091.62829719  .00167333  00000-0  31634-2 0  9993,2 46300  97.4090 167.7028 0003948 225.5008 134.5920 15.47785662142519,2020-061AE,46300,6801.342,93.036,425.892,420.522,1,
GENERATED VIA SPACETRACK.ORG API,18 SPCS,46300,SPACEBEE-21,PAYLOAD,U,20061AE,2023/4/1 21:17,424736,15.47881615,0.0003968,97.409,167.9677,225.1885,134.9043,0,999,14255,0.0034546,0.00183737,0,3877516,0 SPACEBEE-21,1 46300U 20061AE  23091.88689149  .00183737  00000-0  34546-2 0  9993,2 46300  97.4090 167.9677 0003968 225.1885 134.9043 15.47881615142551,2020-061AE,46300,6801.061,93.03,425.625,420.227,1,
GENERATED VIA SPACETRACK.ORG API,18 SPCS,46300,SPACEBEE-21,PAYLOAD,U,20061AE,2023/4/2 6:35,816448,15.48024825,0.000394,97.409,168.3653,223.8719,136.2218,0,999,14261,0.0035537,0.00190104,0,3877792,0 SPACEBEE-21,1 46300U 20061AE  23092.27475482  .00190104  00000-0  35537-2 0  9997,2 46300  97.4090 168.3653 0003940 223.8719 136.2218 15.48024825142610,2020-061AE,46300,6800.642,93.022,425.186,419.827,1,
GENERATED VIA SPACETRACK.ORG API,18 SPCS,46300,SPACEBEE-21,PAYLOAD,U,20061AE,2023/4/2 12:47,142976,15.48099972,0.0003971,97.4089,168.6303,223.4206,136.6732,0,999,14265,0.0030648,0.00163815,0,3878068,0 SPACEBEE-21,1 46300U 20061AE  23092.53331184  .00163815  00000-0  30648-2 0  9993,2 46300  97.4089 168.6303 0003971 223.4206 136.6732 15.48099972142658,2020-061AE,46300,6800.422,93.017,424.987,419.586,1,
GENERATED VIA SPACETRACK.ORG API,18 SPCS,46300,SPACEBEE-21,PAYLOAD,U,20061AE,2023/4/2 12:47,142976,15.48099972,0.0003971,97.4089,168.6303,223.4206,136.6732,0,999,14265,0.0030648,0.00163815,0,3878126,0 SPACEBEE-21,1 46300U 20061AE  23092.53331184  .00163815  00000-0  30648-2 0  9993,2 46300  97.4089 168.6303 0003971 223.4206 136.6732 15.48099972142658,2020-061AE,46300,6800.422,93.017,424.987,419.586,1,
GENERATED VIA SPACETRACK.ORG API,18 SPCS,46300,SPACEBEE-21,PAYLOAD,U,20061AE,2023/4/2 20:33,518272,15.48204322,0.0003994,97.4087,168.9615,222.6744,137.4197,0,999,14270,0.0027369,0.00146485,0,3878419,0 SPACEBEE-21,1 46300U 20061AE  23092.85648748  .00146485  00000-0  27369-2 0  9995,2 46300  97.4087 168.9615 0003994 222.6744 137.4197 15.48204322142705,2020-061AE,46300,6800.116,93.011,424.697,419.265,1,
GENERATED VIA SPACETRACK.ORG API,18 SPCS,46300,SPACEBEE-21,PAYLOAD,U,20061AE,2023/4/3 5:51,896032,15.4834533,0.0004007,97.4086,169.359,223.1775,136.9162,0,999,14276,0.0033557,0.0018131,0,3878598,0 SPACEBEE-21,1 46300U 20061AE  23093.24426963  .00181310  00000-0  33557-2 0  9994,2 46300  97.4086 169.3590 0004007 223.1775 136.9162 15.48345330142764,2020-061AE,46300,6799.703,93.003,424.293,418.844,1,
GENERATED VIA SPACETRACK.ORG API,18 SPCS,46300,SPACEBEE-21,PAYLOAD,U,20061AE,2023/4/3 12:03,679648,15.48414734,0.0003975,97.4087,169.6243,224.0147,136.0788,0,999,14280,0.0029432,0.0015894,0,3878933,0 SPACEBEE-21,1 46300U 20061AE  23093.50277407  .00158940  00000-0  29432-2 0  9990,2 46300  97.4087 169.6243 0003975 224.0147 136.0788 15.48414734142804,2020-061AE,46300,6799.5,92.998,424.068,418.662,1,
